ONEWEB-0589             
1 54655U 22166P   24344.79613441 -.00000013  00000+0 -63863-4 0  9999
2 54655  87.9295 354.4354 0002717  89.6357 270.5088 13.21826846 98301
ONEWEB-0590             
1 54656U 22166Q   24344.74408411  .00000181  00000+0  40677-3 0  9995
2 54656  87.9281 354.4515 0001883  95.9213 264.2135 13.21826888 98286
ONEWEB-0591             
1 54657U 22166R   24344.75671222  .00000110  00000+0  23590-3 0  9996
2 54657  87.9295 354.4450 0001988  92.5031 267.6331 13.21825055 98311
ONEWEB-0592             
1 54658U 22166S   24344.75984256  .00000107  00000+0  22710-3 0  9990
2 54658  87.9290 354.4035 0001958  93.6210 266.5148 13.21828235 98197
ONEWEB-0593             
1 54659U 22166T   24344.78349468  .00001103  00000+0  26376-2 0  9992
2 54659  87.9297 354.4306 0002110  90.7169 269.4207 13.21834001 98307
ONEWEB-0594             
1 54660U 22166U   24344.87811961 -.00000028  00000+0 -98961-4 0  9994
2 54660  87.9296 354.4176 0001793  88.3109 271.8230 13.21826142 98339
ONEWEB-0595             
1 54661U 22166V   24344.78036592  .00000013  00000+0 -53927-6 0  9992
2 54661  87.9294 354.4202 0001700  94.2518 265.8810 13.21826315 98290
ONEWEB-0596             
1 54662U 22166W   24344.45075786  .00000114  00000+0  24467-3 0  9990
2 54662  87.9299 354.4946 0002044  95.8130 264.3237 13.21828105 98252
ONEWEB-0597             
1 54663U 22166X   24344.73462367  .00000088  00000+0  18066-3 0  9995
2 54663  87.9298 354.4406 0002035  89.0032 271.1335 13.21827540 98290
ONEWEB-0600             
1 54664U 22166Y   24344.79297397  .00000070  00000+0  13899-3 0  9991
2 54664  87.9292 354.4594 0001946  87.6091 272.5266 13.21826600 98274
ONEWEB-0601             
1 54665U 22166Z   24344.78508973  .00000093  00000+0  19315-3 0  9990
2 54665  87.9300 354.4382 0002286  92.9852 267.1543 13.21826645 98460
ONEWEB-0602             
1 54666U 22166AA  24344.75037960  .00000144  00000+0  31727-3 0  9999
2 54666  87.9298 354.4474 0002075  86.1463 273.9908 13.21822715 98305
ONEWEB-0603             
1 54667U 22166AB  24344.75512762  .00000085  00000+0  17507-3 0  9992
2 54667  87.9275 354.4380 0002191  89.7701 270.3684 13.21827377 98233
ONEWEB-0604             
1 54668U 22166AC  24344.74249233  .00000113  00000+0  24328-3 0  9993
2 54668  87.9292 354.4206 0002015  84.6840 275.4523 13.21827661 98192
ONEWEB-0605             
1 54669U 22166AD  24344.73620663  .00000122  00000+0  26348-3 0  9997
2 54669  87.9293 354.4534 0002403 102.1931 257.9472 13.21825245 98268
ONEWEB-0606             
1 54670U 22166AE  24344.75828863  .00000157  00000+0  34976-3 0  9997
2 54670  87.9300 354.4491 0001650  92.0551 268.0772 13.21825022 98325
ONEWEB-0607             
1 54671U 22166AF  24344.72516152  .00000049  00000+0  87462-4 0  9999
2 54671  87.9294 354.4275 0002041  88.3573 271.7794 13.21827189 98292
ONEWEB-0608             
1 54672U 22166AG  24344.73146852  .00000089  00000+0  18337-3 0  9995
2 54672  87.9277 354.4482 0002310  92.7325 267.4073 13.21827263 98304
ONEWEB-0610             
1 54673U 22166AH  24344.78824612  .00000047  00000+0  82863-4 0  9998
2 54673  87.9296 354.4330 0002310  93.8249 266.3149 13.21823480 98214
ONEWEB-0611             
1 54674U 22166AJ  24344.78192637  .00000034  00000+0  50604-4 0  9998
2 54674  87.9297 354.4321 0001501  86.3193 273.8112 13.21827686 98206
ONEWEB-0612             
1 54675U 22166AK  24344.79455765  .00000020  00000+0  17613-4 0  9992
2 54675  87.9293 354.4099 0002061  91.1737 268.9633 13.21824861 98198
ONEWEB-0615             
1 54676U 22166AL  24344.77562765  .00000011  00000+0 -55848-5 0  9994
2 54676  87.9295 354.4391 0002017  85.6687 274.4677 13.21826296 98205
ONEWEB-0655             
1 54677U 22166AM  24344.74881300  .00000145  00000+0  32068-3 0  9995
2 54677  87.9294 354.4475 0002033  81.3986 278.7378 13.21827663 98193
ONEWEB-0659             
1 54678U 22166AN  24344.76615281  .00000085  00000+0  17469-3 0  9992
2 54678  87.9294 354.4482 0001691  95.2584 264.8743 13.21828034 98284
ONEWEB-0685             
1 54679U 22166AP  24344.46495674  .00000059  00000+0  11134-3 0  9996
2 54679  87.9295 354.5001 0002006  85.9546 274.1817 13.21828678 98133
ONEWEB-0712             
1 54680U 22166AQ  24344.73819843 -.00000133  00000+0 -38082-3 0  9992
2 54680  87.9077 339.2314 0001870  68.4168 291.7162 13.16594151 99100
ONEWEB-0714             
1 54681U 22166AR  24344.77405067  .00000080  00000+0  16202-3 0  9995
2 54681  87.9295 354.4276 0001991  87.2376 272.8986 13.21822975 98290
ONEWEB-0532             
1 55140U 23004A   24344.62336939  .00000045  00000+0  81544-4 0  9996
2 55140  87.9094 116.3381 0001918 112.9188 247.2146 13.17651078 94554
ONEWEB-0533             
1 55141U 23004B   24344.60334049 -.00000190  00000+0 -56419-3 0  9990
2 55141  87.8885 101.0818 0001654  99.2924 260.8392 13.12443256 95311
ONEWEB-0541             
1 55142U 23004C   24344.88626357 -.00000109  00000+0 -34208-3 0  9999
2 55142  87.8893 131.5011 0001505  98.7355 261.3943 13.11414196 93294
ONEWEB-0543             
1 55143U 23004D   24344.73467145  .00000059  00000+0  11694-3 0  9998
2 55143  87.9107  85.8593 0001539  91.0052 269.1256 13.18685605 96622
ONEWEB-0544             
1 55144U 23004E   24344.72834498  .00000046  00000+0  83670-4 0  9997
2 55144  87.9107  85.8477 0001452 105.2556 254.8737 13.18688367 96628
ONEWEB-0560             
1 55145U 23004F   24344.72202265  .00000097  00000+0  21236-3 0  9994
2 55145  87.9114  85.8104 0001286 103.4584 256.6691 13.18685958 96633
ONEWEB-0565             
1 55146U 23004G   24344.56394444  .00000103  00000+0  22868-3 0  9998
2 55146  87.9110  85.9115 0001478 125.9380 234.1890 13.18686233 96605
ONEWEB-0567             
1 55147U 23004H   24344.55761927  .00000052  00000+0  99314-4 0  9996
2 55147  87.9111  85.8674 0001236 116.5497 243.5762 13.18687351 96607
ONEWEB-0569             
1 55148U 23004J   24344.28192105 -.00000170  00000+0 -50043-3 0  9991
2 55148  87.8931  70.5676 0000727 124.9962 235.1236 13.13470543 97336
ONEWEB-0570             
1 55149U 23004K   24344.54498278  .00000137  00000+0  31529-3 0  9990
2 55149  87.9113  85.8702 0002125 122.0398 238.0941 13.18686473 96593
ONEWEB-0571             
1 55150U 23004L   24344.53865363  .00000084  00000+0  18092-3 0  9995
2 55150  87.9115  85.8789 0001354 143.7812 216.3412 13.18688345 96600
ONEWEB-0572             
1 55151U 23004M   24344.65375184 -.00001000  00000+0 -26100-2 0  9995
2 55151  87.9090 116.3393 0001655 106.1633 253.9681 13.17654558 94456
ONEWEB-0573             
1 55152U 23004N   24344.68407739 -.00000026  00000+0 -99342-4 0  9998
2 55152  87.9111  85.8627 0001702 137.9151 222.2112 13.18688447 96614
ONEWEB-0588             
1 55153U 23004P   24344.75363657  .00000011  00000+0 -60250-5 0  9997
2 55153  87.9115  85.8242 0001878 119.8400 240.2919 13.18688351 96622
ONEWEB-0598             
1 55154U 23004Q   24344.86422901  .00000627  00000+0  17327-2 0  9994
2 55154  87.8891 131.5439 0000949 118.5243 241.5980 13.11418444 93243
ONEWEB-0599             
1 55155U 23004R   24344.61491970  .00000094  00000+0  20863-3 0  9998
2 55155  87.9101 116.3409 0001350  97.7217 262.4068 13.17652029 94451
ONEWEB-0614             
1 55156U 23004S   24344.78284880  .00000354  00000+0  96325-3 0  9992
2 55156  87.8894 131.5663 0001879 100.0849 260.0491 13.11417209 93171
ONEWEB-0616             
1 55157U 23004T   24344.65711385  .00001743  00000+0  44567-2 0  9997
2 55157  87.9091 116.3327 0001282  59.3328 300.7930 13.17643519 94673
ONEWEB-0617             
1 55158U 23004U   24344.69467622  .00000125  00000+0  31594-3 0  9994
2 55158  87.8888 131.5721 0001720 107.9221 252.2095 13.11418275 93184
ONEWEB-0618             
1 55159U 23004V   24344.89059510  .00000826  00000+0  32837-3 0  9999
2 55159  86.9085  30.9780 0015197  77.5245 282.7647 14.27491461100403
ONEWEB-0619             
1 55160U 23004W   24344.61323878  .00000071  00000+0  15064-3 0  9997
2 55160  87.9095 116.3186 0001985  90.3113 269.8246 13.17652159 94564
ONEWEB-0620             
1 55161U 23004X   24344.68957099 -.00000458  00000+0 -13295-2 0  9997
2 55161  87.8890 131.5878 0001594 115.4178 244.7115 13.11417532 93159
ONEWEB-0621             
1 55162U 23004Y   24344.86931659  .00000571  00000+0  15755-2 0  9999
2 55162  87.8888 131.5157 0001741  93.3640 266.7687 13.11414921 93156
ONEWEB-0622             
1 55163U 23004Z   24344.64551099  .00000409  00000+0  11185-2 0  9995
2 55163  87.8891 131.5794 0002143 116.0153 244.1196 13.11413634 93118
ONEWEB-0623             
1 55164U 23004AA  24344.60819275  .00000084  00000+0  18269-3 0  9995
2 55164  87.9097 116.3741 0002383 107.0390 253.1002 13.17650170 94559
ONEWEB-0624             
1 55165U 23004AB  24344.72189374 -.00000059  00000+0 -19992-3 0  9997
2 55165  87.8889 101.0670 0001746 103.9116 256.2207 13.12441187 95321
ONEWEB-0625             
1 55166U 23004AC  24344.67400076  .00000031  00000+0  45473-4 0  9999
2 55166  87.9097 116.3595 0001481  93.1252 267.0049 13.17649166 94556
ONEWEB-0626             
1 55167U 23004AD  24344.66385350  .00000065  00000+0  13409-3 0  9996
2 55167  87.9095 116.3608 0001273 117.4487 242.6774 13.17652809 94551
ONEWEB-0627             
1 55168U 23004AE  24344.65204556  .00000080  00000+0  17410-3 0  9997
2 55168  87.9094 116.3649 0002147 110.3741 249.7621 13.17652242 94552
ONEWEB-0628             
1 55169U 23004AF  24344.62619515  .00000517  00000+0  14003-2 0  9999
2 55169  87.8884 101.0682 0002385 104.2493 255.8900 13.12442737 95298
ONEWEB-0629             
1 55170U 23004AG  24344.62760088  .00000056  00000+0  11130-3 0  9990
2 55170  87.9090 116.3429 0001882  90.1352 269.9996 13.17648569 94551
ONEWEB-0631             
1 55171U 23004AH  24344.74731409  .00000038  00000+0  64751-4 0  9997
2 55171  87.9120  85.7405 0001697 124.8077 235.3215 13.18687334 96605
